NORAD_CAT_ID,OBJECT_NAME,OBJECT_TYPE,EPOCH,MEAN_MOTION,ECCENTRICITY,INCLINATION,RA_OF_ASC_NODE,ARG_OF_PERICENTER,MEAN_ANOMALY,BSTAR,MEAN_MOTION_DOT,MEAN_MOTION_DDOT,TLE_LINE0,TLE_LINE1,TLE_LINE2,SEMIMAJOR_AXIS,PERIOD,APOGEE,PERIGEE,DECAYED
53793.0,STARLINK-4728,PAYLOAD,2023-06-15 03:34:19,15.08839855,0.0001163,53.2174,76.5134,96.2568,263.8557,2.9343e-05,1.79e-06,0.0,0 STARLINK-4728,1 53793U 22111W   23166.14883989  .00000179  00000-0  29343-4 0  9994,2 53793  53.2174  76.5134 0001163  96.2568 263.8557 15.08839855 42941,6917.881,95.438,540.55,538.941,0.0
53793.0,STARLINK-4728,PAYLOAD,2023-06-15 17:52:47,15.08848669,0.0001182,53.2177,73.8381,84.4263,275.6864,-2.3911e-05,-6.68e-06,0.0,0 STARLINK-4728,1 53793U 22111W   23166.74499711 -.00000668  00000-0 -23911-4 0  9996,2 53793  53.2177  73.8381 0001182  84.4263 275.6864 15.08848669 43036,6917.854,95.437,540.537,538.901,0.0
53793.0,STARLINK-4728,PAYLOAD,2023-06-16 00:14:19,15.08853961,0.0001207,53.2172,72.6475,94.41,265.703,7.6469e-05,9.3e-06,0.0,0 STARLINK-4728,1 53793U 22111W   23167.00994861  .00000930  00000-0  76469-4 0  9998,2 53793  53.2172  72.6475 0001207  94.4100 265.7030 15.08853961 42272,6917.838,95.437,540.538,538.868,0.0
53793.0,STARLINK-4728,PAYLOAD,2023-06-16 03:25:05,15.08858667,0.0001152,53.2171,72.0529,90.1646,269.9478,9.0488e-05,1.153e-05,0.0,0 STARLINK-4728,1 53793U 22111W   23167.14242479  .00001153  00000-0  90488-4 0  9999,2 53793  53.2171  72.0529 0001152  90.1646 269.9478 15.08858667 43093,6917.823,95.436,540.485,538.891,0.0
53793.0,STARLINK-4728,PAYLOAD,2023-06-16 17:43:34,15.08845138,0.0001191,53.2169,69.3767,100.4366,259.676,0.00013117,1.801e-05,0.0,0 STARLINK-4728,1 53793U 22111W   23167.73858993  .00001801  00000-0  13117-3 0  9991,2 53793  53.2169  69.3767 0001191 100.4366 259.6760 15.08845138 43189,6917.865,95.437,540.554,538.906,0.0
53793.0,STARLINK-4728,PAYLOAD,2023-06-16 22:29:43,15.08852444,0.0001244,53.2164,68.4845,102.5916,257.5215,0.00022867,3.354e-05,0.0,0 STARLINK-4728,1 53793U 22111W   23167.93730811  .00003354  00000-0  22867-3 0  9998,2 53793  53.2164  68.4845 0001244 102.5916 257.5215 15.08852444 42419,6917.842,95.437,540.568,538.847,0.0
53793.0,STARLINK-4728,PAYLOAD,2023-06-17 03:15:52,15.08856544,0.000117,53.2162,67.5929,93.6426,266.47,0.00026406,3.919e-05,0.0,0 STARLINK-4728,1 53793U 22111W   23168.13602479  .00003919  00000-0  26406-3 0  9999,2 53793  53.2162  67.5929 0001170  93.6426 266.4700 15.08856544 43249,6917.83,95.437,540.504,538.885,0.0
53793.0,STARLINK-4728,PAYLOAD,2023-06-17 17:34:21,15.08832942,0.000148,53.2166,64.9157,103.1723,256.9434,-0.0002177,-3.75e-05,0.0,0 STARLINK-4728,1 53793U 22111W   23168.73219718 -.00003750  00000-0 -21770-3 0  9999,2 53793  53.2166  64.9157 0001480 103.1723 256.9434 15.08832942 42533,6917.902,95.438,540.791,538.743,0.0
53793.0,STARLINK-4728,PAYLOAD,2023-06-18 03:06:41,15.08828569,0.0001112,53.2166,63.1331,84.3425,275.7694,-0.00019104,-3.326e-05,0.0,0 STARLINK-4728,1 53793U 22111W   23169.12964395 -.00003326  00000-0 -19104-3 0  9998,2 53793  53.2166  63.1331 0001112  84.3425 275.7694 15.08828569 43391,6917.915,95.438,540.55,539.011,0.0
53793.0,STARLINK-4728,PAYLOAD,2023-06-18 19:00:32,15.08839765,0.0001039,53.2174,60.1614,83.9921,276.1189,8.8929e-05,1.128e-05,0.0,0 STARLINK-4728,1 53793U 22111W   23169.79204004  .00001128  00000-0  88929-4 0  9993,2 53793  53.2174  60.1614 0001039  83.9921 276.1189 15.08839765 43490,6917.881,95.438,540.465,539.027,0.0
53793.0,STARLINK-4728,PAYLOAD,2023-06-19 02:57:27,15.08857583,0.0001082,53.2166,58.6728,79.1334,280.9779,0.00055373,8.54e-05,0.0,0 STARLINK-4728,1 53793U 22111W   23170.12323451  .00008540  00000-0  55373-3 0  9991,2 53793  53.2166  58.6728 0001082  79.1334 280.9779 15.08857583 42745,6917.827,95.436,540.44,538.943,0.0
53793.0,STARLINK-4728,PAYLOAD,2023-06-19 09:19:00,15.08842591,0.0001523,53.2171,57.4818,83.6238,276.4928,0.00051371,7.898e-05,0.0,0 STARLINK-4728,1 53793U 22111W   23170.38820294  .00007898  00000-0  51371-3 0  9995,2 53793  53.2171  57.4818 0001523  83.6238 276.4928 15.08842591 42784,6917.872,95.437,540.791,538.684,0.0
53793.0,STARLINK-4728,PAYLOAD,2023-06-20 01:12:51,15.08841894,0.0001203,53.2158,54.5098,89.2857,270.8273,7.9748e-05,9.82e-06,0.0,0 STARLINK-4728,1 53793U 22111W   23171.05060099  .00000982  00000-0  79748-4 0  9995,2 53793  53.2158  54.5098 0001203  89.2857 270.8273 15.08841894 42888,6917.875,95.437,540.572,538.907,0.0
53793.0,STARLINK-4728,PAYLOAD,2023-06-20 09:09:47,15.0884118,0.0001304,53.216,53.0224,79.8758,280.2381,8.6288e-05,1.086e-05,0.0,0 STARLINK-4728,1 53793U 22111W   23171.38180186  .00001086  00000-0  86288-4 0  9994,2 53793  53.2160  53.0224 0001304  79.8758 280.2381 15.08841180 43731,6917.877,95.437,540.644,538.84,0.0
53793.0,STARLINK-4728,PAYLOAD,2023-06-20 20:17:29,15.08842573,0.0001132,53.2174,50.9427,97.722,262.39,1.8452e-05,6e-08,0.0,0 STARLINK-4728,1 53793U 22111W   23171.84547979  .00000006  00000-0  18452-4 0  9991,2 53793  53.2174  50.9427 0001132  97.7220 262.3900 15.08842573 43802,6917.873,95.437,540.521,538.954,0.0
53793.0,STARLINK-4728,PAYLOAD,2023-06-21 01:03:38,15.08846343,0.0001183,53.2166,50.0514,89.9675,270.1453,9.1154e-05,1.163e-05,0.0,0 STARLINK-4728,1 53793U 22111W   23172.04419909  .00001163  00000-0  91154-4 0  9990,2 53793  53.2166  50.0514 0001183  89.9675 270.1453 15.08846343 43836,6917.861,95.437,540.544,538.908,0.0
53793.0,STARLINK-4728,PAYLOAD,2023-06-21 20:08:16,15.08839329,0.0001051,53.2165,46.4818,105.8534,254.2574,0.00015188,2.13e-05,0.0,0 STARLINK-4728,1 53793U 22111W   23172.83908380  .00002130  00000-0  15188-3 0  9990,2 53793  53.2165  46.4818 0001051 105.8534 254.2574 15.08839329 43953,6917.882,95.438,540.475,539.02,0.0
53793.0,STARLINK-4728,PAYLOAD,2023-06-22 00:54:26,15.08845794,0.0001159,53.2165,45.59,89.4478,270.6647,0.00023856,3.511e-05,0.0,0 STARLINK-4728,1 53793U 22111W   23173.03780239  .00003511  00000-0  23856-3 0  9999,2 53793  53.2165  45.5900 0001159  89.4478 270.6647 15.08845794 43189,6917.863,95.437,540.529,538.926,0.0
53793.0,STARLINK-4728,PAYLOAD,2023-06-22 08:51:22,15.08836922,0.0001291,53.2165,44.1033,80.6977,279.4161,9.1546e-05,1.169e-05,0.0,0 STARLINK-4728,1 53793U 22111W   23173.36900768  .00001169  00000-0  91546-4 0  9995,2 53793  53.2165  44.1033 0001291  80.6977 279.4161 15.08836922 43232,6917.89,95.438,540.648,538.862,0.0
53793.0,STARLINK-4728,PAYLOAD,2023-06-23 18:14:28,15.08844542,0.0001215,53.2163,37.8593,81.2331,278.8798,0.00014695,2.052e-05,0.0,0 STARLINK-4728,1 53793U 22111W   23174.76004657  .00002052  00000-0  14695-3 0  9993,2 53793  53.2163  37.8593 0001215  81.2331 278.8798 15.08844542 43446,6917.867,95.437,540.572,538.891,0.0
53793.0,STARLINK-4728,PAYLOAD,2023-06-24 00:36:00,15.08852842,0.0001229,53.2167,36.6676,93.3011,266.8121,0.00025118,3.713e-05,0.0,0 STARLINK-4728,1 53793U 22111W   23175.02500160  .00003713  00000-0  25118-3 0  9990,2 53793  53.2167  36.6676 0001229  93.3011 266.8121 15.08852842 43486,6917.841,95.437,540.556,538.856,0.0
53793.0,STARLINK-4728,PAYLOAD,2023-06-25 00:26:47,15.08847779,0.0001167,53.217,32.2071,92.118,267.9946,0.00012698,1.734e-05,0.0,0 STARLINK-4728,1 53793U 22111W   23176.01860244  .00001734  00000-0  12698-3 0  9992,2 53793  53.2170  32.2071 0001167  92.1180 267.9946 15.08847779 43633,6917.857,95.437,540.529,538.914,0.0
53793.0,STARLINK-4728,PAYLOAD,2023-06-25 21:06:48,15.0884029,0.0001095,53.2167,28.3428,86.0421,274.0696,6.1154e-05,6.86e-06,0.0,0 STARLINK-4728,1 53793U 22111W   23176.87972720  .00000686  00000-0  61154-4 0  9996,2 53793  53.2167  28.3428 0001095  86.0421 274.0696 15.08840290 43767,6917.88,95.438,540.502,538.987,0.0
53793.0,STARLINK-4728,PAYLOAD,2023-06-27 06:29:54,15.0883875,0.0001009,53.2162,22.0998,98.0209,262.0897,9.4055e-05,1.209e-05,0.0,0 STARLINK-4728,1 53793U 22111W   23178.27076922  .00001209  00000-0  94055-4 0  9999,2 53793  53.2162  22.0998 0001009  98.0209 262.0897 15.08838750 43978,6917.884,95.438,540.447,539.051,0.0
53793.0,STARLINK-4728,PAYLOAD,2023-06-28 17:28:23,15.08835793,0.000122,53.2174,15.5554,83.0234,277.0897,8.0416e-05,9.92e-06,0.0,0 STARLINK-4728,1 53793U 22111W   23179.72805521  .00000992  00000-0  80416-4 0  9999,2 53793  53.2174  15.5554 0001220  83.0234 277.0897 15.08835793 44198,6917.893,95.438,540.602,538.914,0.0
53793.0,STARLINK-4728,PAYLOAD,2023-06-29 18:54:34,15.08841507,0.000105,53.2174,10.7979,94.8912,265.22,8.2837e-05,1.031e-05,0.0,0 STARLINK-4728,1 53793U 22111W   23180.78789535  .00001031  00000-0  82837-4 0  9997,2 53793  53.2174  10.7979 0001050  94.8912 265.2200 15.08841507 44355,6917.876,95.437,540.467,539.014,0.0
53793.0,STARLINK-4728,PAYLOAD,2023-07-01 07:28:26,15.0884035,0.0001166,53.2164,3.9584,90.1492,269.9634,8.1174e-05,1.004e-05,0.0,0 STARLINK-4728,1 53793U 22111W   23182.31141456  .00001004  00000-0  81174-4 0  9995,2 53793  53.2164   3.9584 0001166  90.1492 269.9634 15.08840350 44582,6917.879,95.438,540.551,538.938,0.0
53793.0,STARLINK-4728,PAYLOAD,2023-07-02 15:16:09,15.08840254,0.00011,53.2177,358.0118,93.815,266.2968,4.3064e-05,3.98e-06,0.0,0 STARLINK-4728,1 53793U 22111W   23183.63621617  .00000398  00000-0  43064-4 0  9994,2 53793  53.2177 358.0118 0001100  93.8150 266.2968 15.08840254 44787,6917.88,95.438,540.506,538.984,0.0
53793.0,STARLINK-4728,PAYLOAD,2023-07-03 18:17:42,15.08843049,0.0001031,53.2181,352.9576,89.8554,270.2557,0.00014157,1.966e-05,0.0,0 STARLINK-4728,1 53793U 22111W   23184.76229286  .00001966  00000-0  14157-3 0  9997,2 53793  53.2181 352.9576 0001031  89.8554 270.2557 15.08843049 44952,6917.871,95.437,540.449,539.023,0.0
53793.0,STARLINK-4728,PAYLOAD,2023-07-04 10:11:33,15.08836515,0.0001049,53.217,349.9839,87.1866,272.9246,5.9288e-05,6.56e-06,0.0,0 STARLINK-4728,1 53793U 22111W   23185.42469741  .00000656  00000-0  59288-4 0  9993,2 53793  53.2170 349.9839 0001049  87.1866 272.9246 15.08836515 45050,6917.891,95.438,540.482,539.03,0.0
